{
  "type": "FeatureCollection",
  "features": [
    {
      "type": "Feature",
      "properties": {
        "norad_id": 40938,
        "name": "BEIDOU-3S IGSO-2S (C56)",
        "group": "beidou",
        "lat": 49.549175433508005,
        "lon": -8.81726650879269,
        "alt_km": 35818.3329282297,
        "timestamp": "2025-12-14T11:29:50.325473+00:00",
        "meta_object_name": "BEIDOU-3S IGSO-2S (C56)",
        "meta_object_id": "2015-053A",
        "meta_epoch": "2025-12-12T17:40:22.230624",
        "meta_mean_motion": 1.00269795,
        "meta_eccentricity": 0.00608697,
        "meta_inclination": 49.5105,
        "meta_ra_of_asc_node": 261.0048,
        "meta_arg_of_pericenter": 188.8005,
        "meta_mean_anomaly": 352.9764,
        "meta_ephemeris_type": 0,
        "meta_classification_type": "U",
        "meta_norad_cat_id": 40938,
        "meta_element_set_no": 999,
        "meta_rev_at_epoch": 3748,
        "meta_bstar": 0,
        "meta_mean_motion_dot": -1.58e-06,
        "meta_mean_motion_ddot": 0,
        "tle_line1": "1 40938U 15053A   25346.73636841 -.00000158  00000+0  00000+0 0  9999",
        "tle_line2": "2 40938  49.5105 261.0048 0060869 188.8005 352.9764  1.00269795 37487"
      },
      "geometry": {
        "type": "Point",
        "coordinates": [
          -8.81726650879269,
          49.549175433508005
        ]
      }
    },
    {
      "type": "Feature",
      "properties": {
        "norad_id": 41434,
        "name": "BEIDOU-2 IGSO-6 (C13)",
        "group": "beidou",
        "lat": -41.8032239720109,
        "lon": 8.808365950227422,
        "alt_km": 35738.18136509198,
        "timestamp": "2025-12-14T11:29:50.325484+00:00",
        "meta_object_name": "BEIDOU-2 IGSO-6 (C13)",
        "meta_object_id": "2016-021A",
        "meta_epoch": "2025-12-11T15:29:12.615360",
        "meta_mean_motion": 1.00293077,
        "meta_eccentricity": 0.00608616,
        "meta_inclination": 59.9644,
        "meta_ra_of_asc_node": 39.9082,
        "meta_arg_of_pericenter": 229.9753,
        "meta_mean_anomaly": 135.9177,
        "meta_ephemeris_type": 0,
        "meta_classification_type": "U",
        "meta_norad_cat_id": 41434,
        "meta_element_set_no": 999,
        "meta_rev_at_epoch": 3560,
        "meta_bstar": 0,
        "meta_mean_motion_dot": -1.62e-06,
        "meta_mean_motion_ddot": 0,
        "tle_line1": "1 41434U 16021A   25345.64528490 -.00000162  00000+0  00000+0 0  9991",
        "tle_line2": "2 41434  59.9644  39.9082 0060861 229.9753 135.9177  1.00293077 35600"
      },
      "geometry": {
        "type": "Point",
        "coordinates": [
          8.808365950227422,
          -41.8032239720109
        ]
      }
    },
    {
      "type": "Feature",
      "properties": {
        "norad_id": 41586,
        "name": "BEIDOU-2 G7 (C03)",
        "group": "beidou",
        "lat": -1.53867148862227,
        "lon": 6.207465364120787,
        "alt_km": 35778.102054390874,
        "timestamp": "2025-12-14T11:29:50.325496+00:00",
        "meta_object_name": "BEIDOU-2 G7 (C03)",
        "meta_object_id": "2016-037A",
        "meta_epoch": "2025-12-13T15:41:15.400608",
        "meta_mean_motion": 1.00266893,
        "meta_eccentricity": 0.00045907,
        "meta_inclination": 1.7596,
        "meta_ra_of_asc_node": 67.775,
        "meta_arg_of_pericenter": 358.4711,
        "meta_mean_anomaly": 2.0592,
        "meta_ephemeris_type": 0,
        "meta_classification_type": "U",
        "meta_norad_cat_id": 41586,
        "meta_element_set_no": 999,
        "meta_rev_at_epoch": 502,
        "meta_bstar": 0,
        "meta_mean_motion_dot": -3.38e-06,
        "meta_mean_motion_ddot": 0,
        "tle_line1": "1 41586U 16037A   25347.65365047 -.00000338  00000+0  00000+0 0  9991",
        "tle_line2": "2 41586   1.7596  67.7750 0004590 358.4711   2.0592  1.00266893  5023"
      },
      "geometry": {
        "type": "Point",
        "coordinates": [
          6.207465364120787,
          -1.53867148862227
        ]
      }
    },
    {
      "type": "Feature",
      "properties": {
        "norad_id": 43001,
        "name": "BEIDOU-3 M1 (C19)",
        "group": "beidou",
        "lat": 31.914271156360435,
        "lon": 93.47902071713169,
        "alt_km": 21526.832541912012,
        "timestamp": "2025-12-14T11:29:50.325507+00:00",
        "meta_object_name": "BEIDOU-3 M1 (C19)",
        "meta_object_id": "2017-069A",
        "meta_epoch": "2025-12-13T08:19:00.908256",
        "meta_mean_motion": 1.86231197,
        "meta_eccentricity": 0.00092543,
        "meta_inclination": 56.5278,
        "meta_ra_of_asc_node": 69.2133,
        "meta_arg_of_pericenter": 303.3207,
        "meta_mean_anomaly": 56.6091,
        "meta_ephemeris_type": 0,
        "meta_classification_type": "U",
        "meta_norad_cat_id": 43001,
        "meta_element_set_no": 999,
        "meta_rev_at_epoch": 5514,
        "meta_bstar": 0,
        "meta_mean_motion_dot": -7.8e-07,
        "meta_mean_motion_ddot": 0,
        "tle_line1": "1 43001U 17069A   25347.34653829 -.00000078  00000+0  00000+0 0  9996",
        "tle_line2": "2 43001  56.5278  69.2133 0009254 303.3207  56.6091  1.86231197 55145"
      },
      "geometry": {
        "type": "Point",
        "coordinates": [
          93.47902071713169,
          31.914271156360435
        ]
      }
    },
    {
      "type": "Feature",
      "properties": {
        "norad_id": 43002,
        "name": "BEIDOU-3 M2 (C20)",
        "group": "beidou",
        "lat": 55.41686342280917,
        "lon": 142.6164241595033,
        "alt_km": 21527.519155006416,
        "timestamp": "2025-12-14T11:29:50.325518+00:00",
        "meta_object_name": "BEIDOU-3 M2 (C20)",
        "meta_object_id": "2017-069B",
        "meta_epoch": "2025-12-12T17:57:03.193632",
        "meta_mean_motion": 1.86230645,
        "meta_eccentricity": 0.00063664,
        "meta_inclination": 56.5266,
        "meta_ra_of_asc_node": 69.2696,
        "meta_arg_of_pericenter": 331.453,
        "meta_mean_anomaly": 28.5312,
        "meta_ephemeris_type": 0,
        "meta_classification_type": "U",
        "meta_norad_cat_id": 43002,
        "meta_element_set_no": 999,
        "meta_rev_at_epoch": 5512,
        "meta_bstar": 0,
        "meta_mean_motion_dot": -7.4e-07,
        "meta_mean_motion_ddot": 0,
        "tle_line1": "1 43002U 17069B   25346.74795363 -.00000074  00000+0  00000+0 0  9996",
        "tle_line2": "2 43002  56.5266  69.2696 0006366 331.4530  28.5312  1.86230645 55128"
      },
      "geometry": {
        "type": "Point",
        "coordinates": [
          142.6164241595033,
          55.41686342280917
        ]
      }
    },
    {
      "type": "Feature",
      "properties": {
        "norad_id": 43107,
        "name": "BEIDOU-3 M7 (C27)",
        "group": "beidou",
        "lat": -51.11180998297556,
        "lon": -169.06858710514766,
        "alt_km": 21540.814008158974,
        "timestamp": "2025-12-14T11:29:50.325529+00:00",
        "meta_object_name": "BEIDOU-3 M7 (C27)",
        "meta_object_id": "2018-003A",
        "meta_epoch": "2025-12-10T08:14:11.609952",
        "meta_mean_motion": 1.86232173,
        "meta_eccentricity": 0.00026083,
        "meta_inclination": 54.4988,
        "meta_ra_of_asc_node": 308.8983,
        "meta_arg_of_pericenter": 70.7786,
        "meta_mean_anomaly": 289.2405,
        "meta_ephemeris_type": 0,
        "meta_classification_type": "U",
        "meta_norad_cat_id": 43107,
        "meta_element_set_no": 999,
        "meta_rev_at_epoch": 5383,
        "meta_bstar": 0,
        "meta_mean_motion_dot": -8.2e-07,
        "meta_mean_motion_ddot": 0,
        "tle_line1": "1 43107U 18003A   25344.34318993 -.00000082  00000+0  00000+0 0  9994",
        "tle_line2": "2 43107  54.4988 308.8983 0002608  70.7786 289.2405  1.86232173 53837"
      },
      "geometry": {
        "type": "Point",
        "coordinates": [
          -169.06858710514766,
          -51.11180998297556
        ]
      }
    },
    {
      "type": "Feature",
      "properties": {
        "norad_id": 43108,
        "name": "BEIDOU-3 M8 (C28)",
        "group": "beidou",
        "lat": -49.97572648337638,
        "lon": -109.46705987262068,
        "alt_km": 21520.747984544985,
        "timestamp": "2025-12-14T11:29:50.325540+00:00",
        "meta_object_name": "BEIDOU-3 M8 (C28)",
        "meta_object_id": "2018-003B",
        "meta_epoch": "2025-12-11T21:34:27.940800",
        "meta_mean_motion": 1.86230629,
        "meta_eccentricity": 0.00047751,
        "meta_inclination": 54.4899,
        "meta_ra_of_asc_node": 308.8263,
        "meta_arg_of_pericenter": 274.4182,
        "meta_mean_anomaly": 85.5183,
        "meta_ephemeris_type": 0,
        "meta_classification_type": "U",
        "meta_norad_cat_id": 43108,
        "meta_element_set_no": 999,
        "meta_rev_at_epoch": 5387,
        "meta_bstar": 0,
        "meta_mean_motion_dot": -9e-07,
        "meta_mean_motion_ddot": 0,
        "tle_line1": "1 43108U 18003B   25345.89893450 -.00000090  00000+0  00000+0 0  9991",
        "tle_line2": "2 43108  54.4899 308.8263 0004775 274.4182  85.5183  1.86230629 53878"
      },
      "geometry": {
        "type": "Point",
        "coordinates": [
          -109.46705987262068,
          -49.97572648337638
        ]
      }
    }
  ]
}